STARLINK-35608          
1 66508U 25263Z   25335.50006943 -.00016240  00000+0 -10277-3 0  9992
2 66508  42.9987 191.6517 0001889 265.1550 254.7912 15.75046825  3822
STARLINK-35598          
1 66509U 25263AA  25335.50006943  .00070090  00000+0  45623-3 0  9997
2 66509  42.9986 191.6308 0001552 268.5666 259.0642 15.75006996  3825
STARLINK-35600          
1 66510U 25263AB  25335.50006943 -.00008360  00000+0 -51344-4 0  9990
2 66510  42.9989 191.6459 0002044 267.8052 254.0622 15.75046082  3828
STARLINK-35444          
1 66511U 25263AC  25335.50006943  .00080973  00000+0  52596-3 0  9998
2 66511  42.9987 191.6357 0001788 268.8085 256.9040 15.75004895  3826
STARLINK-35366          
1 66512U 25263AD  25335.50006943 -.00003341  00000+0 -18650-4 0  9999
2 66512  42.9987 191.6258 0001746 251.4467 278.0897 15.75038613  3823
STARLINK-35692          
1 66513U 25263AE  25335.50006943  .00007419  00000+0  51382-4 0  9997
2 66513  42.9989 191.6411 0001676 267.4449 256.3375 15.75028959  3828
SENTINEL-6B             
1 66514U 25264A   25335.26912444  .00000014  00000+0  30734-3 0  9995
2 66514  66.0387 186.3929 0011526 268.9655  91.0043 12.85877220  1817
STARLINK-35924          
1 66516U 25265A   25335.50006943 -.01344816  00000+0 -92913-2 0  9993
2 66516  42.9996 120.9704 0001278 274.1486 271.4683 15.76280666  3166
STARLINK-35937          
1 66517U 25265B   25335.50006943 -.01316447  00000+0 -90964-2 0  9997
2 66517  42.9996 120.9659 0001367 276.9572 270.6521 15.76220140  3186
STARLINK-35962          
1 66518U 25265C   25335.50006943 -.01344494  00000+0 -93184-2 0  9998
2 66518  42.9994 120.9610 0001276 274.2813 275.2800 15.76209387  3181
STARLINK-35931          
1 66519U 25265D   25335.50006943 -.01267298  00000+0 -87619-2 0  9991
2 66519  42.9996 120.9555 0001503 273.2624 278.3155 15.76107849  3181
STARLINK-35952          
1 66520U 25265E   25335.50006943 -.01212821  00000+0 -85400-2 0  9991
2 66520  42.9996 120.9502 0001311 283.5067 270.0858 15.76020693  3187
