CCSDS_OMM_VERS = 2.0
CREATION_DATE  = 
ORIGINATOR     = 

OBJECT_NAME    = STARLINK-35608
OBJECT_ID      = 2025-263Z
CENTER_NAME    = EARTH
REF_FRAME      = TEME
TIME_SYSTEM    = UTC
MEAN_ELEMENT_THEORY = SGP/SGP4

EPOCH          = 2025-12-01T12:00:05.998752
MEAN_MOTION    = 15.75046825
ECCENTRICITY   = .0001889
INCLINATION    = 42.9987
RA_OF_ASC_NODE = 191.6517
ARG_OF_PERICENTER = 265.1550
MEAN_ANOMALY   = 254.7912

EPHEMERIS_TYPE = 0
CLASSIFICATION_TYPE = U
NORAD_CAT_ID   = 66508
ELEMENT_SET_NO = 999
REV_AT_EPOCH   = 382
BSTAR          = -.10277E-3
MEAN_MOTION_DOT = -.1624E-3
MEAN_MOTION_DDOT = 0

CCSDS_OMM_VERS = 2.0
CREATION_DATE  = 
ORIGINATOR     = 

OBJECT_NAME    = STARLINK-35598
OBJECT_ID      = 2025-263AA
CENTER_NAME    = EARTH
REF_FRAME      = TEME
TIME_SYSTEM    = UTC
MEAN_ELEMENT_THEORY = SGP/SGP4

EPOCH          = 2025-12-01T12:00:05.998752
MEAN_MOTION    = 15.75006996
ECCENTRICITY   = .0001552
INCLINATION    = 42.9986
RA_OF_ASC_NODE = 191.6308
ARG_OF_PERICENTER = 268.5666
MEAN_ANOMALY   = 259.0642

EPHEMERIS_TYPE = 0
CLASSIFICATION_TYPE = U
NORAD_CAT_ID   = 66509
ELEMENT_SET_NO = 999
REV_AT_EPOCH   = 382
BSTAR          = .45623E-3
MEAN_MOTION_DOT = .7009E-3
MEAN_MOTION_DDOT = 0

CCSDS_OMM_VERS = 2.0
CREATION_DATE  = 
ORIGINATOR     = 

OBJECT_NAME    = STARLINK-35600
OBJECT_ID      = 2025-263AB
CENTER_NAME    = EARTH
REF_FRAME      = TEME
TIME_SYSTEM    = UTC
MEAN_ELEMENT_THEORY = SGP/SGP4

EPOCH          = 2025-12-01T12:00:05.998752
MEAN_MOTION    = 15.75046082
ECCENTRICITY   = .0002044
INCLINATION    = 42.9989
RA_OF_ASC_NODE = 191.6459
ARG_OF_PERICENTER = 267.8052
MEAN_ANOMALY   = 254.0622

EPHEMERIS_TYPE = 0
CLASSIFICATION_TYPE = U
NORAD_CAT_ID   = 66510
ELEMENT_SET_NO = 999
REV_AT_EPOCH   = 382
BSTAR          = -.51344E-4
MEAN_MOTION_DOT = -.836E-4
MEAN_MOTION_DDOT = 0

CCSDS_OMM_VERS = 2.0
CREATION_DATE  = 
ORIGINATOR     = 

OBJECT_NAME    = STARLINK-35444
OBJECT_ID      = 2025-263AC
CENTER_NAME    = EARTH
REF_FRAME      = TEME
TIME_SYSTEM    = UTC
MEAN_ELEMENT_THEORY = SGP/SGP4

EPOCH          = 2025-12-01T12:00:05.998752
MEAN_MOTION    = 15.75004895
ECCENTRICITY   = .0001788
INCLINATION    = 42.9987
RA_OF_ASC_NODE = 191.6357
ARG_OF_PERICENTER = 268.8085
MEAN_ANOMALY   = 256.9040

EPHEMERIS_TYPE = 0
CLASSIFICATION_TYPE = U
NORAD_CAT_ID   = 66511
ELEMENT_SET_NO = 999
REV_AT_EPOCH   = 382
BSTAR          = .52596E-3
MEAN_MOTION_DOT = .80973E-3
MEAN_MOTION_DDOT = 0

CCSDS_OMM_VERS = 2.0
CREATION_DATE  = 
ORIGINATOR     = 

OBJECT_NAME    = STARLINK-35366
OBJECT_ID      = 2025-263AD
CENTER_NAME    = EARTH
REF_FRAME      = TEME
TIME_SYSTEM    = UTC
MEAN_ELEMENT_THEORY = SGP/SGP4

EPOCH          = 2025-12-01T12:00:05.998752
MEAN_MOTION    = 15.75038613
ECCENTRICITY   = .0001746
INCLINATION    = 42.9987
RA_OF_ASC_NODE = 191.6258
ARG_OF_PERICENTER = 251.4467
MEAN_ANOMALY   = 278.0897

EPHEMERIS_TYPE = 0
CLASSIFICATION_TYPE = U
NORAD_CAT_ID   = 66512
ELEMENT_SET_NO = 999
REV_AT_EPOCH   = 382
BSTAR          = -.1865E-4
MEAN_MOTION_DOT = -.3341E-4
MEAN_MOTION_DDOT = 0

CCSDS_OMM_VERS = 2.0
CREATION_DATE  = 
ORIGINATOR     = 

OBJECT_NAME    = STARLINK-35692
OBJECT_ID      = 2025-263AE
CENTER_NAME    = EARTH
REF_FRAME      = TEME
TIME_SYSTEM    = UTC
MEAN_ELEMENT_THEORY = SGP/SGP4

EPOCH          = 2025-12-01T12:00:05.998752
MEAN_MOTION    = 15.75028959
ECCENTRICITY   = .0001676
INCLINATION    = 42.9989
RA_OF_ASC_NODE = 191.6411
ARG_OF_PERICENTER = 267.4449
MEAN_ANOMALY   = 256.3375

EPHEMERIS_TYPE = 0
CLASSIFICATION_TYPE = U
NORAD_CAT_ID   = 66513
ELEMENT_SET_NO = 999
REV_AT_EPOCH   = 382
BSTAR          = .51382E-4
MEAN_MOTION_DOT = .7419E-4
MEAN_MOTION_DDOT = 0

CCSDS_OMM_VERS = 2.0
CREATION_DATE  = 
ORIGINATOR     = 

OBJECT_NAME    = SENTINEL-6B
OBJECT_ID      = 2025-264A
CENTER_NAME    = EARTH
REF_FRAME      = TEME
TIME_SYSTEM    = UTC
MEAN_ELEMENT_THEORY = SGP/SGP4

EPOCH          = 2025-12-01T06:27:32.351616
MEAN_MOTION    = 12.85877220
ECCENTRICITY   = .0011526
INCLINATION    = 66.0387
RA_OF_ASC_NODE = 186.3929
ARG_OF_PERICENTER = 268.9655
MEAN_ANOMALY   = 91.0043

EPHEMERIS_TYPE = 0
CLASSIFICATION_TYPE = U
NORAD_CAT_ID   = 66514
ELEMENT_SET_NO = 999
REV_AT_EPOCH   = 181
BSTAR          = .30734E-3
MEAN_MOTION_DOT = .14E-6
MEAN_MOTION_DDOT = 0

CCSDS_OMM_VERS = 2.0
CREATION_DATE  = 
ORIGINATOR     = 

OBJECT_NAME    = STARLINK-35924
OBJECT_ID      = 2025-265A
CENTER_NAME    = EARTH
REF_FRAME      = TEME
TIME_SYSTEM    = UTC
MEAN_ELEMENT_THEORY = SGP/SGP4

EPOCH          = 2025-12-01T12:00:05.998752
MEAN_MOTION    = 15.76280666
ECCENTRICITY   = .0001278
INCLINATION    = 42.9996
RA_OF_ASC_NODE = 120.9704
ARG_OF_PERICENTER = 274.1486
MEAN_ANOMALY   = 271.4683

EPHEMERIS_TYPE = 0
CLASSIFICATION_TYPE = U
NORAD_CAT_ID   = 66516
ELEMENT_SET_NO = 999
REV_AT_EPOCH   = 316
BSTAR          = -.92913E-2
MEAN_MOTION_DOT = -.1344816E-1
MEAN_MOTION_DDOT = 0

CCSDS_OMM_VERS = 2.0
CREATION_DATE  = 
ORIGINATOR     = 

OBJECT_NAME    = STARLINK-35937
OBJECT_ID      = 2025-265B
CENTER_NAME    = EARTH
REF_FRAME      = TEME
TIME_SYSTEM    = UTC
MEAN_ELEMENT_THEORY = SGP/SGP4

EPOCH          = 2025-12-01T12:00:05.998752
MEAN_MOTION    = 15.76220140
ECCENTRICITY   = .0001367
INCLINATION    = 42.9996
RA_OF_ASC_NODE = 120.9659
ARG_OF_PERICENTER = 276.9572
MEAN_ANOMALY   = 270.6521

EPHEMERIS_TYPE = 0
CLASSIFICATION_TYPE = U
NORAD_CAT_ID   = 66517
ELEMENT_SET_NO = 999
REV_AT_EPOCH   = 318
BSTAR          = -.90964E-2
MEAN_MOTION_DOT = -.1316447E-1
MEAN_MOTION_DDOT = 0

CCSDS_OMM_VERS = 2.0
CREATION_DATE  = 
ORIGINATOR     = 

OBJECT_NAME    = STARLINK-35962
OBJECT_ID      = 2025-265C
CENTER_NAME    = EARTH
REF_FRAME      = TEME
TIME_SYSTEM    = UTC
MEAN_ELEMENT_THEORY = SGP/SGP4

EPOCH          = 2025-12-01T12:00:05.998752
MEAN_MOTION    = 15.76209387
ECCENTRICITY   = .0001276
INCLINATION    = 42.9994
RA_OF_ASC_NODE = 120.9610
ARG_OF_PERICENTER = 274.2813
MEAN_ANOMALY   = 275.2800

EPHEMERIS_TYPE = 0
CLASSIFICATION_TYPE = U
NORAD_CAT_ID   = 66518
ELEMENT_SET_NO = 999
REV_AT_EPOCH   = 318
BSTAR          = -.93184E-2
MEAN_MOTION_DOT = -.1344494E-1
MEAN_MOTION_DDOT = 0

CCSDS_OMM_VERS = 2.0
CREATION_DATE  = 
ORIGINATOR     = 

OBJECT_NAME    = STARLINK-35931
OBJECT_ID      = 2025-265D
CENTER_NAME    = EARTH
REF_FRAME      = TEME
TIME_SYSTEM    = UTC
MEAN_ELEMENT_THEORY = SGP/SGP4

EPOCH          = 2025-12-01T12:00:05.998752
MEAN_MOTION    = 15.76107849
ECCENTRICITY   = .0001503
INCLINATION    = 42.9996
RA_OF_ASC_NODE = 120.9555
ARG_OF_PERICENTER = 273.2624
MEAN_ANOMALY   = 278.3155

EPHEMERIS_TYPE = 0
CLASSIFICATION_TYPE = U
NORAD_CAT_ID   = 66519
ELEMENT_SET_NO = 999
REV_AT_EPOCH   = 318
BSTAR          = -.87619E-2
MEAN_MOTION_DOT = -.1267298E-1
MEAN_MOTION_DDOT = 0

CCSDS_OMM_VERS = 2.0
CREATION_DATE  = 
ORIGINATOR     = 

OBJECT_NAME    = STARLINK-35952
OBJECT_ID      = 2025-265E
CENTER_NAME    = EARTH
REF_FRAME      = TEME
TIME_SYSTEM    = UTC
MEAN_ELEMENT_THEORY = SGP/SGP4

EPOCH          = 2025-12-01T12:00:05.998752
MEAN_MOTION    = 15.76020693
ECCENTRICITY   = .0001311
INCLINATION    = 42.9996
RA_OF_ASC_NODE = 120.9502
ARG_OF_PERICENTER = 283.5067
MEAN_ANOMALY   = 270.0858

EPHEMERIS_TYPE = 0
CLASSIFICATION_TYPE = U
NORAD_CAT_ID   = 66520
ELEMENT_SET_NO = 999
REV_AT_EPOCH   = 318
BSTAR          = -.854E-2
MEAN_MOTION_DOT = -.1212821E-1
MEAN_MOTION_DDOT = 0

